{"fetched_at":"2026-07-15T06:36:08.770Z","source":"https://celestrak.org/NORAD/elements/gp.php?NAME=ICEYE&FORMAT=JSON","constellation":"iceye","records":[{"OBJECT_NAME":"ICEYE-X40","OBJECT_ID":"2024-149CK","EPOCH":"2026-07-14T18:09:02.897856","CLASSIFICATION_TYPE":"U","MEAN_MOTION":14.98068753,"ECCENTRICITY":0.00039719,"INCLINATION":97.6797,"RA_OF_ASC_NODE":271.8091,"ARG_OF_PERICENTER":7.7825,"MEAN_ANOMALY":352.3459,"EPHEMERIS_TYPE":0,"NORAD_CAT_ID":60549,"ELEMENT_SET_NO":999,"REV_AT_EPOCH":10420,"BSTAR":0.0001247155,"MEAN_MOTION_DOT":0.00001417,"MEAN_MOTION_DDOT":0},{"OBJECT_NAME":"ICEYE-X49","OBJECT_ID":"2024-247H","EPOCH":"2026-07-13T10:34:12.990432","CLASSIFICATION_TYPE":"U","MEAN_MOTION":15.13608718,"ECCENTRICITY":0.00014215,"INCLINATION":44.9963,"RA_OF_ASC_NODE":217.1632,"ARG_OF_PERICENTER":241.3726,"MEAN_ANOMALY":118.7009,"EPHEMERIS_TYPE":0,"NORAD_CAT_ID":62384,"ELEMENT_SET_NO":999,"REV_AT_EPOCH":8615,"BSTAR":0.000095124861,"MEAN_MOTION_DOT":0.0000148,"MEAN_MOTION_DDOT":0},{"OBJECT_NAME":"ICEYE-X47","OBJECT_ID":"2024-247N","EPOCH":"2026-07-14T09:45:07.367328","CLASSIFICATION_TYPE":"U","MEAN_MOTION":15.13483146,"ECCENTRICITY":0.00014962,"INCLINATION":44.9951,"RA_OF_ASC_NODE":211.5966,"ARG_OF_PERICENTER":343.0956,"MEAN_ANOMALY":16.9872,"EPHEMERIS_TYPE":0,"NORAD_CAT_ID":62389,"ELEMENT_SET_NO":999,"REV_AT_EPOCH":8630,"BSTAR":0.000061032488,"MEAN_MOTION_DOT":0.00000854,"MEAN_MOTION_DDOT":0},{"OBJECT_NAME":"ICEYE-X42","OBJECT_ID":"2025-009CT","EPOCH":"2026-07-14T18:34:12.521856","CLASSIFICATION_TYPE":"U","MEAN_MOTION":14.9185325,"ECCENTRICITY":0.00012997,"INCLINATION":97.739,"RA_OF_ASC_NODE":273.5914,"ARG_OF_PERICENTER":96.7593,"MEAN_ANOMALY":263.3773,"EPHEMERIS_TYPE":0,"NORAD_CAT_ID":62698,"ELEMENT_SET_NO":999,"REV_AT_EPOCH":8140,"BSTAR":0.00011309397,"MEAN_MOTION_DOT":0.00001087,"MEAN_MOTION_DDOT":0},{"OBJECT_NAME":"ICEYE-X41","OBJECT_ID":"2025-009CV","EPOCH":"2026-07-14T19:30:03.468960","CLASSIFICATION_TYPE":"U","MEAN_MOTION":14.96911424,"ECCENTRICITY":0.00002966,"INCLINATION":97.706,"RA_OF_ASC_NODE":274.9383,"ARG_OF_PERICENTER":299.9754,"MEAN_ANOMALY":60.1439,"EPHEMERIS_TYPE":0,"NORAD_CAT_ID":62700,"ELEMENT_SET_NO":999,"REV_AT_EPOCH":8154,"BSTAR":0.00013551708,"MEAN_MOTION_DOT":0.00001498,"MEAN_MOTION_DDOT":0},{"OBJECT_NAME":"ICEYE-X45","OBJECT_ID":"2025-009DA","EPOCH":"2026-07-14T20:44:58.199136","CLASSIFICATION_TYPE":"U","MEAN_MOTION":15.00838748,"ECCENTRICITY":0.00011833,"INCLINATION":97.8415,"RA_OF_ASC_NODE":282.7786,"ARG_OF_PERICENTER":92.7384,"MEAN_ANOMALY":267.3975,"EPHEMERIS_TYPE":0,"NORAD_CAT_ID":62705,"ELEMENT_SET_NO":999,"REV_AT_EPOCH":8183,"BSTAR":0.00042108709,"MEAN_MOTION_DOT":0.00005292,"MEAN_MOTION_DDOT":0},{"OBJECT_NAME":"ICEYE-X44","OBJECT_ID":"2025-009DC","EPOCH":"2026-07-14T18:35:28.668768","CLASSIFICATION_TYPE":"U","MEAN_MOTION":14.96166017,"ECCENTRICITY":0.00025483,"INCLINATION":97.7059,"RA_OF_ASC_NODE":274.4652,"ARG_OF_PERICENTER":72.9033,"MEAN_ANOMALY":287.2467,"EPHEMERIS_TYPE":0,"NORAD_CAT_ID":62707,"ELEMENT_SET_NO":999,"REV_AT_EPOCH":10406,"BSTAR":0.00017539667,"MEAN_MOTION_DOT":0.00001918,"MEAN_MOTION_DDOT":0},{"OBJECT_NAME":"ICEYE-X48","OBJECT_ID":"2025-052AV","EPOCH":"2026-07-14T17:01:37.845120","CLASSIFICATION_TYPE":"U","MEAN_MOTION":14.98123913,"ECCENTRICITY":0.00039267,"INCLINATION":97.6838,"RA_OF_ASC_NODE":87.4742,"ARG_OF_PERICENTER":105.5467,"MEAN_ANOMALY":254.6189,"EPHEMERIS_TYPE":0,"NORAD_CAT_ID":63253,"ELEMENT_SET_NO":999,"REV_AT_EPOCH":7279,"BSTAR":0.00015306329,"MEAN_MOTION_DOT":0.00001755,"MEAN_MOTION_DDOT":0},{"OBJECT_NAME":"ICEYE-X50","OBJECT_ID":"2025-052AX","EPOCH":"2026-07-14T22:16:42.127968","CLASSIFICATION_TYPE":"U","MEAN_MOTION":14.95364992,"ECCENTRICITY":0.00034594,"INCLINATION":97.6859,"RA_OF_ASC_NODE":87.2873,"ARG_OF_PERICENTER":101.9826,"MEAN_ANOMALY":258.1783,"EPHEMERIS_TYPE":0,"NORAD_CAT_ID":63255,"ELEMENT_SET_NO":999,"REV_AT_EPOCH":7279,"BSTAR":0.000084359906,"MEAN_MOTION_DOT":0.00000874,"MEAN_MOTION_DDOT":0},{"OBJECT_NAME":"ICEYE-X51","OBJECT_ID":"2025-052AZ","EPOCH":"2026-07-14T22:12:41.479776","CLASSIFICATION_TYPE":"U","MEAN_MOTION":15.00882732,"ECCENTRICITY":0.00020564,"INCLINATION":97.761,"RA_OF_ASC_NODE":90.9714,"ARG_OF_PERICENTER":67.5233,"MEAN_ANOMALY":292.6209,"EPHEMERIS_TYPE":0,"NORAD_CAT_ID":63257,"ELEMENT_SET_NO":999,"REV_AT_EPOCH":7296,"BSTAR":0.00016476328,"MEAN_MOTION_DOT":0.00002036,"MEAN_MOTION_DDOT":0},{"OBJECT_NAME":"ICEYE-X46","OBJECT_ID":"2025-052BA","EPOCH":"2026-07-14T15:46:33.514176","CLASSIFICATION_TYPE":"U","MEAN_MOTION":14.9536639,"ECCENTRICITY":0.00017049,"INCLINATION":97.686,"RA_OF_ASC_NODE":87.0205,"ARG_OF_PERICENTER":82.4988,"MEAN_ANOMALY":277.6426,"EPHEMERIS_TYPE":0,"NORAD_CAT_ID":63258,"ELEMENT_SET_NO":999,"REV_AT_EPOCH":7275,"BSTAR":0.00011391358,"MEAN_MOTION_DOT":0.00001201,"MEAN_MOTION_DDOT":0},{"OBJECT_NAME":"ICEYE-X54","OBJECT_ID":"2025-135AU","EPOCH":"2026-07-14T22:35:40.523136","CLASSIFICATION_TYPE":"U","MEAN_MOTION":14.94731618,"ECCENTRICITY":0.00020361,"INCLINATION":97.7746,"RA_OF_ASC_NODE":310.0995,"ARG_OF_PERICENTER":181.2017,"MEAN_ANOMALY":178.9199,"EPHEMERIS_TYPE":0,"NORAD_CAT_ID":64570,"ELEMENT_SET_NO":999,"REV_AT_EPOCH":5804,"BSTAR":0.00016133938,"MEAN_MOTION_DOT":0.00001695,"MEAN_MOTION_DDOT":0},{"OBJECT_NAME":"ICEYE-X52","OBJECT_ID":"2025-135AW","EPOCH":"2026-07-14T22:32:19.674240","CLASSIFICATION_TYPE":"U","MEAN_MOTION":14.93652262,"ECCENTRICITY":0.0001224,"INCLINATION":97.7768,"RA_OF_ASC_NODE":309.8869,"ARG_OF_PERICENTER":188.1588,"MEAN_ANOMALY":171.9612,"EPHEMERIS_TYPE":0,"NORAD_CAT_ID":64572,"ELEMENT_SET_NO":999,"REV_AT_EPOCH":5802,"BSTAR":0.00011332907,"MEAN_MOTION_DOT":0.00001141,"MEAN_MOTION_DDOT":0},{"OBJECT_NAME":"ICEYE-X56","OBJECT_ID":"2025-135AY","EPOCH":"2026-07-14T22:17:49.485408","CLASSIFICATION_TYPE":"U","MEAN_MOTION":14.95761146,"ECCENTRICITY":0.00013682,"INCLINATION":97.7766,"RA_OF_ASC_NODE":310.6747,"ARG_OF_PERICENTER":191.6375,"MEAN_ANOMALY":168.4814,"EPHEMERIS_TYPE":0,"NORAD_CAT_ID":64574,"ELEMENT_SET_NO":999,"REV_AT_EPOCH":5807,"BSTAR":0.00018399687,"MEAN_MOTION_DOT":0.00001993,"MEAN_MOTION_DDOT":0},{"OBJECT_NAME":"ICEYE-X57","OBJECT_ID":"2025-135BC","EPOCH":"2026-07-14T22:25:52.552128","CLASSIFICATION_TYPE":"U","MEAN_MOTION":15.00860244,"ECCENTRICITY":0.0002148,"INCLINATION":97.8025,"RA_OF_ASC_NODE":312.4882,"ARG_OF_PERICENTER":59.3511,"MEAN_ANOMALY":300.7924,"EPHEMERIS_TYPE":0,"NORAD_CAT_ID":64578,"ELEMENT_SET_NO":999,"REV_AT_EPOCH":5818,"BSTAR":0.00020552477,"MEAN_MOTION_DOT":0.00002553,"MEAN_MOTION_DDOT":0},{"OBJECT_NAME":"ICEYE-X55","OBJECT_ID":"2025-135BF","EPOCH":"2026-07-14T22:28:27.883776","CLASSIFICATION_TYPE":"U","MEAN_MOTION":14.95361659,"ECCENTRICITY":0.00018635,"INCLINATION":97.7766,"RA_OF_ASC_NODE":310.5079,"ARG_OF_PERICENTER":234.7901,"MEAN_ANOMALY":125.3145,"EPHEMERIS_TYPE":0,"NORAD_CAT_ID":64581,"ELEMENT_SET_NO":999,"REV_AT_EPOCH":5806,"BSTAR":0.0001870572,"MEAN_MOTION_DOT":0.00002006,"MEAN_MOTION_DDOT":0}]}
