ICEYE-X40               
1 60549U 24149CK  26195.75628354  .00001417  00000+0  12472-3 0  9998
2 60549  97.6797 271.8091 0003971   7.7825 352.3459 14.98068753104207
ICEYE-X49               
1 62384U 24247H   26194.44042813  .00001480  00000+0  95125-4 0  9998
2 62384  44.9963 217.1632 0001421 241.3726 118.7009 15.13608718 86151
ICEYE-X47               
1 62389U 24247N   26195.40633527  .00000854  00000+0  61032-4 0  9992
2 62389  44.9951 211.5966 0001496 343.0956  16.9872 15.13483146 86308
ICEYE-X42               
1 62698U 25009CT  26195.77375604  .00001087  00000+0  11309-3 0  9991
2 62698  97.7390 273.5914 0001299  96.7593 263.3773 14.91853250 81401
ICEYE-X41               
1 62700U 25009CV  26195.81254015  .00001498  00000+0  13552-3 0  9990
2 62700  97.7060 274.9383 0000296 299.9754  60.1439 14.96911424 81546
ICEYE-X45               
1 62705U 25009DA  26195.86456249  .00005292  00000+0  42109-3 0  9999
2 62705  97.8415 282.7786 0001183  92.7384 267.3975 15.00838748 81835
ICEYE-X44               
1 62707U 25009DC  26195.77463737  .00001918  00000+0  17540-3 0  9993
2 62707  97.7059 274.4652 0002548  72.9033 287.2467 14.96166017104062
ICEYE-X48               
1 63253U 25052AV  26195.70946580  .00001755  00000+0  15306-3 0  9990
2 63253  97.6838  87.4742 0003926 105.5467 254.6189 14.98123913 72793
ICEYE-X50               
1 63255U 25052AX  26195.92826537  .00000874  00000+0  84360-4 0  9993
2 63255  97.6859  87.2873 0003459 101.9826 258.1783 14.95364992 72791
ICEYE-X51               
1 63257U 25052AZ  26195.92548009  .00002036  00000+0  16476-3 0  9994
2 63257  97.7610  90.9714 0002056  67.5233 292.6209 15.00882732 72964
ICEYE-X46               
1 63258U 25052BA  26195.65733234  .00001201  00000+0  11391-3 0  9995
2 63258  97.6860  87.0205 0001704  82.4988 277.6426 14.95366390 72756
ICEYE-X54               
1 64570U 25135AU  26195.94144124  .00001695  00000+0  16134-3 0  9998
2 64570  97.7746 310.0995 0002036 181.2017 178.9199 14.94731618 58047
ICEYE-X52               
1 64572U 25135AW  26195.93911660  .00001141  00000+0  11333-3 0  9998
2 64572  97.7768 309.8869 0001224 188.1588 171.9612 14.93652262 58023
ICEYE-X56               
1 64574U 25135AY  26195.92904497  .00001993  00000+0  18400-3 0  9996
2 64574  97.7766 310.6747 0001368 191.6375 168.4814 14.95761146 58074
ICEYE-X57               
1 64578U 25135BC  26195.93463602  .00002553  00000+0  20552-3 0  9993
2 64578  97.8025 312.4882 0002148  59.3511 300.7924 15.00860244 58187
ICEYE-X55               
1 64581U 25135BF  26195.93643384  .00002006  00000+0  18706-3 0  9995
2 64581  97.7766 310.5079 0001863 234.7901 125.3145 14.95361659 58066
